{"type": "FeatureCollection", "features": [ {"type": "Feature", "properties": {"norad_id": 34610, "name": "COSMOS 2251 DEB", "group": "cosmos-2251-debris", "lat": -64.86632116071456, "lon": 109.7334436577588, "alt_km": 960.8173881263328, "timestamp": "2025-12-18T13:51:50.080742+00:00", "meta": {"OBJECT_NAME": "COSMOS 2251 DEB", "OBJECT_ID": "1993-036WF", "EPOCH": "2025-12-16T19:43:22.866816", "MEAN_MOTION": 14.07083274, "ECCENTRICITY": 0.01805005, "INCLINATION": 74.0182, "RA_OF_ASC_NODE": 255.1605, "ARG_OF_PERICENTER": 24.866, "MEAN_ANOMALY": 336.104, "EPHEMERIS_TYPE": 0, "CLASSIFICATION_TYPE": "U", "NORAD_CAT_ID": 34610, "ELEMENT_SET_NO": 999, "REV_AT_EPOCH": 85617, "BSTAR": 0.0012903668, "MEAN_MOTION_DOT": 2.479e-05, "MEAN_MOTION_DDOT": 0}, "tle": {"line1": "1 34610U 93036WF  25350.82179244  .00002479  00000+0  12904-2 0  9996", "line2": "2 34610  74.0182 255.1605 0180500  24.8660 336.1040 14.07083274856172"}}, "geometry": {"type": "Point", "coordinates": [109.7334436577588, -64.86632116071456]}}, {"type": "Feature", "properties": {"norad_id": 34611, "name": "COSMOS 2251 DEB", "group": "cosmos-2251-debris", "lat": 0.9497851466711736, "lon": -90.6044601480046, "alt_km": 654.7619230176006, "timestamp": "2025-12-18T13:51:50.080752+00:00", "meta": {"OBJECT_NAME": "COSMOS 2251 DEB", "OBJECT_ID": "1993-036WG", "EPOCH": "2025-12-18T06:39:28.145376", "MEAN_MOTION": 14.69606213, "ECCENTRICITY": 0.00220772, "INCLINATION": 74.0541, "RA_OF_ASC_NODE": 90.248, "ARG_OF_PERICENTER": 129.8681, "MEAN_ANOMALY": 260.9739, "EPHEMERIS_TYPE": 0, "CLASSIFICATION_TYPE": "U", "NORAD_CAT_ID": 34611, "ELEMENT_SET_NO": 999, "REV_AT_EPOCH": 88472, "BSTAR": 0.0012431836, "MEAN_MOTION_DOT": 7.393e-05, "MEAN_MOTION_DDOT": 0}, "tle": {"line1": "1 34611U 93036WG  25352.27740909  .00007393  00000+0  12432-2 0  9996", "line2": "2 34611  74.0541  90.2480 0022077 129.8681 260.9739 14.69606213884727"}}, "geometry": {"type": "Point", "coordinates": [-90.6044601480046, 0.9497851466711736]}}, {"type": "Feature", "properties": {"norad_id": 34613, "name": "COSMOS 2251 DEB", "group": "cosmos-2251-debris", "lat": 71.17903773942315, "lon": -34.497752326194885, "alt_km": 721.0753356390605, "timestamp": "2025-12-18T13:51:50.080763+00:00", "meta": {"OBJECT_NAME": "COSMOS 2251 DEB", "OBJECT_ID": "1993-036WJ", "EPOCH": "2025-12-16T00:58:31.243296", "MEAN_MOTION": 14.26454619, "ECCENTRICITY": 0.01102473, "INCLINATION": 73.9638, "RA_OF_ASC_NODE": 272.5587, "ARG_OF_PERICENTER": 103.5153, "MEAN_ANOMALY": 273.8209, "EPHEMERIS_TYPE": 0, "CLASSIFICATION_TYPE": "U", "NORAD_CAT_ID": 34613, "ELEMENT_SET_NO": 999, "REV_AT_EPOCH": 86510, "BSTAR": 0.00095440148, "MEAN_MOTION_DOT": 2.425e-05, "MEAN_MOTION_DDOT": 0}, "tle": {"line1": "1 34613U 93036WJ  25350.04063939  .00002425  00000+0  95440-3 0  9994", "line2": "2 34613  73.9638 272.5587 0110247 103.5153 273.8209 14.26454619865107"}}, "geometry": {"type": "Point", "coordinates": [-34.497752326194885, 71.17903773942315]}}, {"type": "Feature", "properties": {"norad_id": 34614, "name": "COSMOS 2251 DEB", "group": "cosmos-2251-debris", "lat": 11.442503502054688, "lon": 150.02933701730598, "alt_km": 966.6198314590356, "timestamp": "2025-12-18T13:51:50.080773+00:00", "meta": {"OBJECT_NAME": "COSMOS 2251 DEB", "OBJECT_ID": "1993-036WK", "EPOCH": "2025-12-16T00:21:28.707840", "MEAN_MOTION": 14.17601251, "ECCENTRICITY": 0.0198196, "INCLINATION": 73.8837, "RA_OF_ASC_NODE": 337.994, "ARG_OF_PERICENTER": 331.3985, "MEAN_ANOMALY": 83.6306, "EPHEMERIS_TYPE": 0, "CLASSIFICATION_TYPE": "U", "NORAD_CAT_ID": 34614, "ELEMENT_SET_NO": 999, "REV_AT_EPOCH": 84813, "BSTAR": 0.0047337499, "MEAN_MOTION_DOT": 0.00011666, "MEAN_MOTION_DDOT": 0}, "tle": {"line1": "1 34614U 93036WK  25350.01491560  .00011666  00000+0  47337-2 0  9995", "line2": "2 34614  73.8837 337.9940 0198196 331.3985  83.6306 14.17601251848135"}}, "geometry": {"type": "Point", "coordinates": [150.02933701730598, 11.442503502054688]}}, {"type": "Feature", "properties": {"norad_id": 34615, "name": "COSMOS 2251 DEB", "group": "cosmos-2251-debris", "lat": 52.00195234302157, "lon": 83.23892662791712, "alt_km": 927.3535477363121, "timestamp": "2025-12-18T13:51:50.080784+00:00", "meta": {"OBJECT_NAME": "COSMOS 2251 DEB", "OBJECT_ID": "1993-036WL", "EPOCH": "2025-12-17T19:37:28.144704", "MEAN_MOTION": 13.52204013, "ECCENTRICITY": 0.0400821, "INCLINATION": 74.0049, "RA_OF_ASC_NODE": 285.9969, "ARG_OF_PERICENTER": 192.1583, "MEAN_ANOMALY": 198.7192, "EPHEMERIS_TYPE": 0, "CLASSIFICATION_TYPE": "U", "NORAD_CAT_ID": 34615, "ELEMENT_SET_NO": 999, "REV_AT_EPOCH": 82884, "BSTAR": 5.2428039e-05, "MEAN_MOTION_DOT": 3.6e-07, "MEAN_MOTION_DDOT": 0}, "tle": {"line1": "1 34615U 93036WL  25351.81768686  .00000036  00000+0  52428-4 0  9999", "line2": "2 34615  74.0049 285.9969 0400821 192.1583 198.7192 13.52204013828845"}}, "geometry": {"type": "Point", "coordinates": [83.23892662791712, 52.00195234302157]}}, {"type": "Feature", "properties": {"norad_id": 34619, "name": "COSMOS 2251 DEB", "group": "cosmos-2251-debris", "lat": -54.304010363109896, "lon": 32.18886328599268, "alt_km": 636.9541305393122, "timestamp": "2025-12-18T13:51:50.080794+00:00", "meta": {"OBJECT_NAME": "COSMOS 2251 DEB", "OBJECT_ID": "1993-036WQ", "EPOCH": "2025-12-17T23:39:36.373824", "MEAN_MOTION": 14.64657918, "ECCENTRICITY": 0.00947522, "INCLINATION": 74.0433, "RA_OF_ASC_NODE": 189.858, "ARG_OF_PERICENTER": 283.5091, "MEAN_ANOMALY": 75.5534, "EPHEMERIS_TYPE": 0, "CLASSIFICATION_TYPE": "U", "NORAD_CAT_ID": 34619, "ELEMENT_SET_NO": 999, "REV_AT_EPOCH": 89375, "BSTAR": 0.00016701761, "MEAN_MOTION_DOT": 9.13e-06, "MEAN_MOTION_DDOT": 0}, "tle": {"line1": "1 34619U 93036WQ  25351.98583766  .00000913  00000+0  16702-3 0  9993", "line2": "2 34619  74.0433 189.8580 0094752 283.5091  75.5534 14.64657918893752"}}, "geometry": {"type": "Point", "coordinates": [32.18886328599268, -54.304010363109896]}}, {"type": "Feature", "properties": {"norad_id": 34620, "name": "COSMOS 2251 DEB", "group": "cosmos-2251-debris", "lat": 28.828132555888658, "lon": 19.53738285914256, "alt_km": 729.9526361132903, "timestamp": "2025-12-18T13:51:50.080804+00:00", "meta": {"OBJECT_NAME": "COSMOS 2251 DEB", "OBJECT_ID": "1993-036WR", "EPOCH": "2025-12-17T15:37:43.675680", "MEAN_MOTION": 14.49177124, "ECCENTRICITY": 0.00800634, "INCLINATION": 74.051, "RA_OF_ASC_NODE": 210.3285, "ARG_OF_PERICENTER": 245.6066, "MEAN_ANOMALY": 113.6724, "EPHEMERIS_TYPE": 0, "CLASSIFICATION_TYPE": "U", "NORAD_CAT_ID": 34620, "ELEMENT_SET_NO": 999, "REV_AT_EPOCH": 86898, "BSTAR": 0.001540269, "MEAN_MOTION_DOT": 6.083e-05, "MEAN_MOTION_DDOT": 0}, "tle": {"line1": "1 34620U 93036WR  25351.65119995  .00006083  00000+0  15403-2 0  9998", "line2": "2 34620  74.0510 210.3285 0080063 245.6066 113.6724 14.49177124868984"}}, "geometry": {"type": "Point", "coordinates": [19.53738285914256, 28.828132555888658]}}, {"type": "Feature", "properties": {"norad_id": 34622, "name": "COSMOS 2251 DEB", "group": "cosmos-2251-debris", "lat": -58.110974937279714, "lon": -90.84200507225466, "alt_km": 810.7262865815246, "timestamp": "2025-12-18T13:51:50.080815+00:00", "meta": {"OBJECT_NAME": "COSMOS 2251 DEB", "OBJECT_ID": "1993-036WT", "EPOCH": "2025-12-17T21:31:57.246240", "MEAN_MOTION": 14.22067123, "ECCENTRICITY": 0.01045787, "INCLINATION": 74.0427, "RA_OF_ASC_NODE": 297.7571, "ARG_OF_PERICENTER": 18.9913, "MEAN_ANOMALY": 37.9607, "EPHEMERIS_TYPE": 0, "CLASSIFICATION_TYPE": "U", "NORAD_CAT_ID": 34622, "ELEMENT_SET_NO": 999, "REV_AT_EPOCH": 86533, "BSTAR": 0.00082135127, "MEAN_MOTION_DOT": 1.896e-05, "MEAN_MOTION_DDOT": 0}, "tle": {"line1": "1 34622U 93036WT  25351.89719035  .00001896  00000+0  82135-3 0  9991", "line2": "2 34622  74.0427 297.7571 0104578  18.9913  37.9607 14.22067123865332"}}, "geometry": {"type": "Point", "coordinates": [-90.84200507225466, -58.110974937279714]}}, {"type": "Feature", "properties": {"norad_id": 34626, "name": "COSMOS 2251 DEB", "group": "cosmos-2251-debris", "lat": 72.32009540608955, "lon": 68.73293320669131, "alt_km": 636.6715228589874, "timestamp": "2025-12-18T13:51:50.080825+00:00", "meta": {"OBJECT_NAME": "COSMOS 2251 DEB", "OBJECT_ID": "1993-036WX", "EPOCH": "2025-12-18T07:25:29.798688", "MEAN_MOTION": 14.72263485, "ECCENTRICITY": 0.0026845, "INCLINATION": 74.0481, "RA_OF_ASC_NODE": 313.0638, "ARG_OF_PERICENTER": 39.6325, "MEAN_ANOMALY": 76.4059, "EPHEMERIS_TYPE": 0, "CLASSIFICATION_TYPE": "U", "NORAD_CAT_ID": 34626, "ELEMENT_SET_NO": 999, "REV_AT_EPOCH": 89226, "BSTAR": 0.00084995687, "MEAN_MOTION_DOT": 5.37e-05, "MEAN_MOTION_DDOT": 0}, "tle": {"line1": "1 34626U 93036WX  25352.30937267  .00005370  00000+0  84996-3 0  9999", "line2": "2 34626  74.0481 313.0638 0026845  39.6325  76.4059 14.72263485892264"}}, "geometry": {"type": "Point", "coordinates": [68.73293320669131, 72.32009540608955]}}, {"type": "Feature", "properties": {"norad_id": 34634, "name": "COSMOS 2251 DEB", "group": "cosmos-2251-debris", "lat": -72.92513273928392, "lon": -44.66727992292425, "alt_km": 740.0415799330713, "timestamp": "2025-12-18T13:51:50.080835+00:00", "meta": {"OBJECT_NAME": "COSMOS 2251 DEB", "OBJECT_ID": "1993-036XF", "EPOCH": "2025-12-18T02:50:33.988416", "MEAN_MOTION": 14.55672792, "ECCENTRICITY": 0.00438756, "INCLINATION": 74.0516, "RA_OF_ASC_NODE": 24.7895, "ARG_OF_PERICENTER": 130.5744, "MEAN_ANOMALY": 259.8258, "EPHEMERIS_TYPE": 0, "CLASSIFICATION_TYPE": "U", "NORAD_CAT_ID": 34634, "ELEMENT_SET_NO": 999, "REV_AT_EPOCH": 88860, "BSTAR": 0.00023308992, "MEAN_MOTION_DOT": 1.002e-05, "MEAN_MOTION_DDOT": 0}, "tle": {"line1": "1 34634U 93036XF  25352.11844894  .00001002  00000+0  23309-3 0  9999", "line2": "2 34634  74.0516  24.7895 0043875 130.5744 259.8258 14.55672792888608"}}, "geometry": {"type": "Point", "coordinates": [-44.66727992292425, -72.92513273928392]}}]}